NORAD_CAT_ID,OBJECT_NAME,OBJECT_TYPE,EPOCH,MEAN_MOTION,ECCENTRICITY,INCLINATION,RA_OF_ASC_NODE,ARG_OF_PERICENTER,MEAN_ANOMALY,BSTAR,MEAN_MOTION_DOT,MEAN_MOTION_DDOT,TLE_LINE0,TLE_LINE1,TLE_LINE2,SEMIMAJOR_AXIS,PERIOD,APOGEE,PERIGEE,DECAYED
54767.0,TBA - TO BE ASSIGNED,UNKNOWN,2022-12-27 18:00:00,15.7784987,0.0002188,53.2177,256.9986,266.2094,13.3727,-0.0076396999999999,-0.01171199,0.0,0 TBA - TO BE ASSIGNED,1 54767U 22175K   22361.75001157 -.01171199  00000-0 -76397-2 0  9991,2 54767  53.2177 256.9986 0002188 266.2094  13.3727 15.77849870  1302,6714.670999999999,91.263,338.005,335.06699999999995,
54767.0,TBA - TO BE ASSIGNED,UNKNOWN,2022-12-27 22:00:00,15.77441399,0.0004627,53.2172,256.1698,270.8791,235.823,-0.0080968,-0.01214867,0.0,0 TBA - TO BE ASSIGNED,1 54767U 22175K   22361.91667824 -.01214867  00000-0 -80968-2 0  9997,2 54767  53.2172 256.1698 0004627 270.8791 235.8230 15.77441399  1308,6715.83,91.287,340.802,334.587,
54767.0,STARLINK-5472,PAYLOAD,2022-12-28 08:00:01,15.76339731,6.56e-05,53.2171,254.0967,24.6501,328.7434,-0.0083012,-0.01186397,0.0,0 STARLINK-5472,1 54767U 22175K   22362.33334491 -.01186397  00000-0 -83012-2 0  9994,2 54767  53.2171 254.0967 0000656  24.6501 328.7434 15.76339731  1397,6718.959,91.351,341.264,340.3830000000001,0.0
54767.0,STARLINK-5472,PAYLOAD,2022-12-28 14:00:01,15.75691965,9.46e-05,53.2172,252.8527,71.8608,260.7603,-0.0085804,-0.01191057,0.0,0 STARLINK-5472,1 54767U 22175K   22362.58334491 -.01191057  00000-0 -85804-2 0  9991,2 54767  53.2172 252.8527 0000946  71.8608 260.7603 15.75691965  1303,6720.8,91.388,343.301,342.029,0.0
54767.0,STARLINK-5472,PAYLOAD,2022-12-28 22:00:00,15.74833002,0.0001020999999999,53.2172,251.1999,67.7345,356.2731,-0.0090319,-0.01205293,0.0,0 STARLINK-5472,1 54767U 22175K   22362.91667824 -.01205293  00000-0 -90319-2 0  9992,2 54767  53.2172 251.1999 0001021  67.7345 356.2731 15.74833002  1307,6723.243,91.438,345.795,344.422,0.0
54767.0,STARLINK-5472,PAYLOAD,2022-12-29 00:00:00,15.74601488,0.0001203,53.2174,250.7869,66.9678,109.7291,-0.0089132999999999,-0.01180648,0.0,0 STARLINK-5472,1 54767U 22175K   22363.00001157 -.01180648  00000-0 -89133-2 0  9992,2 54767  53.2174 250.7869 0001203  66.9678 109.7291 15.74601488  1495,6723.901999999999,91.452,346.576,344.959,0.0
54767.0,STARLINK-5472,PAYLOAD,2022-12-29 08:00:01,15.73612063,0.0001214,53.2171,249.1344,59.7561,207.0392,-0.0039099,-0.00525632,0.0,0 STARLINK-5472,1 54767U 22175K   22363.33334491 -.00525632  00000-0 -39099-2 0  9999,2 54767  53.2171 249.1344 0001214  59.7561 207.0392 15.73612063  1545,6726.721,91.509,349.402,347.769,0.0
54767.0,STARLINK-5472,PAYLOAD,2022-12-29 14:00:01,15.73205324,0.0001066999999999,53.2173,247.8952,75.65899999999998,168.09599999999998,-2.317e-05,-3.87e-05,0.0,0 STARLINK-5472,1 54767U 22175K   22363.58334491 -.00003870  00000-0 -23170-4 0  9996,2 54767  53.2173 247.8952 0001067  75.6590 168.0960 15.73205324  1301,6727.88,91.533,350.463,349.027,0.0
54767.0,STARLINK-5472,PAYLOAD,2022-12-29 16:00:00,15.73202564,0.0001127,53.2176,247.4828,83.5961,272.3926,2.5555e-05,2.968e-05,0.0,0 STARLINK-5472,1 54767U 22175K   22363.66667824  .00002968  00000-0  25555-4 0  9998,2 54767  53.2176 247.4828 0001127  83.5961 272.3926 15.73202564  1606,6727.888000000001,91.533,350.511,348.995,0.0
54767.0,STARLINK-5472,PAYLOAD,2022-12-30 00:00:00,15.732630800000004,0.0001460999999999,53.2149,245.8396,79.5441,5.4270000000000005,-0.00030558,-0.00043402,0.0,0 STARLINK-5472,1 54767U 22175K   22364.00001157 -.00043402  00000-0 -30558-3 0  9996,2 54767  53.2149 245.8396 0001461  79.5441   5.4270 15.73263080  1659,6727.715,91.53,350.56300000000016,348.597,0.0
54767.0,STARLINK-5472,PAYLOAD,2022-12-30 14:00:01,15.73190689,0.0001315,53.2148,242.9505,94.3655,56.3026,0.00019365,0.00026633,0.0,0 STARLINK-5472,1 54767U 22175K   22364.58334491  .00026633  00000-0  19365-3 0  9997,2 54767  53.2148 242.9505 0001315  94.3655  56.3026 15.73190689  1308,6727.922,91.534,350.671,348.902,0.0
54767.0,STARLINK-5472,PAYLOAD,2022-12-31 08:00:01,15.73176559,0.0001097,53.2151,239.2402,88.3027,352.4441,0.00032403,0.00045054,0.0,0 STARLINK-5472,1 54767U 22175K   22365.33334491  .00045054  00000-0  32403-3 0  9997,2 54767  53.2151 239.2402 0001097  88.3027 352.4441 15.73176559  1862,6727.962,91.535,350.565,349.089,0.0
54767.0,STARLINK-5472,PAYLOAD,2022-12-31 14:00:01,15.73192422,0.0001088999999999,53.215,238.002,96.9729,320.4487,5.235e-05,6.731e-05,0.0,0 STARLINK-5472,1 54767U 22175K   22365.58334491  .00006731  00000-0  52350-4 0  9997,2 54767  53.2150 238.0020 0001089  96.9729 320.4487 15.73192422  1300,6727.917,91.534,350.514,349.0490000000001,0.0
54767.0,STARLINK-5472,PAYLOAD,2022-12-31 22:00:00,15.73216247,0.0001065,53.2147,236.3545,85.1099,61.2298,-0.00051712,-0.00072619,0.0,0 STARLINK-5472,1 54767U 22175K   22365.91667824 -.00072619  00000-0 -51712-3 0  9993,2 54767  53.2147 236.3545 0001065  85.1099  61.2298 15.73216247  1305,6727.849,91.532,350.43,348.997,0.0
54767.0,STARLINK-5472,PAYLOAD,2023-01-01 00:00:00,15.73188652,0.0001100999999999,53.2148,235.9426,83.1414,175.4366,-0.0002052,-0.00029303,0.0,0 STARLINK-5472,1 54767U 22175K   23001.00001157 -.00029303  00000-0 -20520-3 0  9997,2 54767  53.2148 235.9426 0001101  83.1414 175.4366 15.73188652  1963,6727.928000000001,91.534,350.533,349.052,0.0
54767.0,STARLINK-5472,PAYLOAD,2023-01-01 14:00:01,15.73125862,9.25e-05,53.2147,233.0528,99.8565,224.2701,0.00077556,0.00109302,0.0,0 STARLINK-5472,1 54767U 22175K   23001.58334491  .00109302  00000-0  77556-3 0  9997,2 54767  53.2147 233.0528 0000925  99.8565 224.2701 15.73125862  1306,6728.107,91.537,350.594,349.349,0.0
54767.0,STARLINK-5472,PAYLOAD,2023-01-02 00:00:00,15.733475899999998,0.000124,53.2163,230.9917,93.718,71.5025,-0.0026261,-0.00356244,0.0,0 STARLINK-5472,1 54767U 22175K   23002.00001157 -.00356244  00000-0 -26261-2 0  9992,2 54767  53.2163 230.9917 0001240  93.7180  71.5025 15.73347590  1305,6727.474,91.525,350.1740000000001,348.505,0.0
54767.0,STARLINK-5472,PAYLOAD,2023-01-02 00:49:32,15.73206101,7.69e-05,53.215,230.8225,88.9876,271.1233,0.00049985,0.00070136,0.0,0 STARLINK-5472,1 54767U 22175K   23002.03439918  .00070136  00000-0  49985-3 0  9995,2 54767  53.2150 230.8225 0000769  88.9876 271.1233 15.73206101  2138,6727.878000000002,91.533,350.26,349.225,0.0
54767.0,STARLINK-5472,PAYLOAD,2023-01-02 14:32:58,15.7278307,9.23e-05,53.2147,227.9952,108.2544,251.8577,-0.00095691,-0.00130504,0.0,0 STARLINK-5472,1 54767U 22175K   23002.60623115 -.00130504  00000-0 -95691-3 0  9995,2 54767  53.2147 227.9952 0000923 108.2544 251.8577 15.72783070  2228,6729.084,91.557,351.57,350.32800000000015,0.0
54767.0,STARLINK-5472,PAYLOAD,2023-01-02 20:39:08,15.72133976,0.0001066999999999,53.2147,226.738,84.3319,275.7822,-0.001516,-0.00199157,0.0,0 STARLINK-5472,1 54767U 22175K   23002.86051364 -.00199157  00000-0 -15160-2 0  9995,2 54767  53.2147 226.7380 0001067  84.3319 275.7822 15.72133976  2260,6730.936,91.595,353.519,352.083,0.0
54767.0,STARLINK-5472,PAYLOAD,2023-01-03 05:48:39,15.71214572,7.77e-05,53.2144,224.8549,20.6015,339.5036,-0.00093781,-0.00119853,0.0,0 STARLINK-5472,1 54767U 22175K   23003.24212056 -.00119853  00000-0 -93781-3 0  9996,2 54767  53.2144 224.8549 0000777  20.6015 339.5036 15.71214572  2320,6733.562,91.649,355.95,354.903,0.0
54767.0,STARLINK-5472,PAYLOAD,2023-01-03 14:00:01,15.69983778,0.0001125999999999,53.2169,223.1672,71.962,58.4008,-0.010845,-0.01198749,0.0,0 STARLINK-5472,1 54767U 22175K   23003.58334491 -.01198749  00000-0 -10845-1 0  9991,2 54767  53.2169 223.1672 0001126  71.9620  58.4008 15.69983778  1307,6737.08,91.721,359.704,358.18699999999984,0.0
54767.0,STARLINK-5472,PAYLOAD,2023-01-03 16:00:01,15.69766967,0.0001152,53.2173,222.7566,79.8292,161.8305,-0.010906,-0.01194996,0.0,0 STARLINK-5472,1 54767U 22175K   23003.66668981 -.01194996  00000-0 -10906-1 0  9992,2 54767  53.2173 222.7566 0001152  79.8292 161.8305 15.69766967  2387,6737.701,91.733,360.342,358.79,0.0
54767.0,STARLINK-5472,PAYLOAD,2023-01-04 14:00:01,15.67414749,0.0001054,53.2173,218.2513,74.1553,306.7857,-0.01209,-0.01200971,0.0,0 STARLINK-5472,1 54767U 22175K   23004.58335648 -.01200971  00000-0 -12090-1 0  9992,2 54767  53.2173 218.2513 0001054  74.1553 306.7857 15.67414749  1307,6744.44,91.871,367.016,365.594,0.0
54767.0,STARLINK-5472,PAYLOAD,2023-01-04 16:00:00,15.67193534,0.0001211999999999,53.2178,217.8426,70.4589,60.8778,-0.012092,-0.01191424,0.0,0 STARLINK-5472,1 54767U 22175K   23004.66667824 -.01191424  00000-0 -12092-1 0  9999,2 54767  53.2178 217.8426 0001212  70.4589  60.8778 15.67193534  2547,6745.075,91.884,367.757,366.122,0.0
54767.0,STARLINK-5472,PAYLOAD,2023-01-04 22:00:00,15.66554369,0.0001109,53.2174,216.61900000000003,89.1406,13.1801,-0.012471,-0.01196515,0.0,0 STARLINK-5472,1 54767U 22175K   23004.91667824 -.01196515  00000-0 -12471-1 0  9994,2 54767  53.2174 216.6190 0001109  89.1406  13.1801 15.66554369  1305,6746.909000000002,91.921,369.522,368.026,0.0
54767.0,STARLINK-5472,PAYLOAD,2023-01-05 14:00:01,15.64824884,6.32e-05,53.213,213.3598,86.3767,175.782,-0.01299,-0.01165296,0.0,0 STARLINK-5472,1 54767U 22175K   23005.58334491 -.01165296  00000-0 -12990-1 0  9997,2 54767  53.2130 213.3598 0000632  86.3767 175.7820 15.64824884  1308,6751.879,92.023,374.171,373.318,0.0
54767.0,STARLINK-5472,PAYLOAD,2023-01-05 20:00:01,15.64198915,9.67e-05,53.2129,212.1403,74.1931,156.8249,-0.013777,-0.01201476,0.0,0 STARLINK-5472,1 54767U 22175K   23005.83334491 -.01201476  00000-0 -13777-1 0  9990,2 54767  53.2129 212.1403 0000967  74.1931 156.8249 15.64198915  1301,6753.681,92.06,376.199,374.893,0.0
54767.0,STARLINK-5472,PAYLOAD,2023-01-06 08:00:01,15.62887059,0.0001143,53.2132,209.6997,77.2412,89.7755,-0.0139889999999999,-0.01162303,0.0,0 STARLINK-5472,1 54767U 22175K   23006.33334491 -.01162303  00000-0 -13989-1 0  9996,2 54767  53.2132 209.6997 0001143  77.2412  89.7755 15.62887059  2803,6757.459,92.137,380.097,378.552,0.0
